[{"OBJECT_NAME":"STARLINK-35240","OBJECT_ID":"2025-211D","EPOCH":"2026-02-16T17:18:50.859936","MEAN_MOTION":15.05649279,"ECCENTRICITY":0.0001473,"INCLINATION":97.6043,"RA_OF_ASC_NODE":93.3464,"ARG_OF_PERICENTER":97.4488,"MEAN_ANOMALY":262.6906,"EPHEMERIS_TYPE":0,"CLASSIFICATION_TYPE":"U","NORAD_CAT_ID":65655,"ELEMENT_SET_NO":999,"REV_AT_EPOCH":2388,"BSTAR":0.00037719,"MEAN_MOTION_DOT":5.386e-5,"MEAN_MOTION_DDOT":0},{"OBJECT_NAME":"STARLINK-35344","OBJECT_ID":"2025-211E","EPOCH":"2026-02-16T17:10:53.379840","MEAN_MOTION":15.05643684,"ECCENTRICITY":0.0001577,"INCLINATION":97.6045,"RA_OF_ASC_NODE":93.3546,"ARG_OF_PERICENTER":91.3526,"MEAN_ANOMALY":268.7882,"EPHEMERIS_TYPE":0,"CLASSIFICATION_TYPE":"U","NORAD_CAT_ID":65656,"ELEMENT_SET_NO":999,"REV_AT_EPOCH":2388,"BSTAR":0.00020507,"MEAN_MOTION_DOT":2.899e-5,"MEAN_MOTION_DDOT":0},{"OBJECT_NAME":"STARLINK-34540","OBJECT_ID":"2025-211F","EPOCH":"2026-02-16T17:02:53.885760","MEAN_MOTION":15.05650898,"ECCENTRICITY":0.0001513,"INCLINATION":97.6044,"RA_OF_ASC_NODE":93.3625,"ARG_OF_PERICENTER":133.0905,"MEAN_ANOMALY":227.0449,"EPHEMERIS_TYPE":0,"CLASSIFICATION_TYPE":"U","NORAD_CAT_ID":65657,"ELEMENT_SET_NO":999,"REV_AT_EPOCH":2388,"BSTAR":0.0001264,"MEAN_MOTION_DOT":1.764e-5,"MEAN_MOTION_DDOT":0},{"OBJECT_NAME":"STARLINK-35282","OBJECT_ID":"2025-211G","EPOCH":"2026-02-16T16:54:55.474272","MEAN_MOTION":15.05650798,"ECCENTRICITY":0.0001524,"INCLINATION":97.6037,"RA_OF_ASC_NODE":93.3692,"ARG_OF_PERICENTER":94.934,"MEAN_ANOMALY":265.2061,"EPHEMERIS_TYPE":0,"CLASSIFICATION_TYPE":"U","NORAD_CAT_ID":65658,"ELEMENT_SET_NO":999,"REV_AT_EPOCH":2388,"BSTAR":9.3651e-5,"MEAN_MOTION_DOT":1.291e-5,"MEAN_MOTION_DDOT":0},{"OBJECT_NAME":"STARLINK-35120","OBJECT_ID":"2025-211H","EPOCH":"2026-02-16T16:58:54.515424","MEAN_MOTION":15.05648119,"ECCENTRICITY":0.0001057,"INCLINATION":97.6041,"RA_OF_ASC_NODE":93.3662,"ARG_OF_PERICENTER":140.6452,"MEAN_ANOMALY":219.4851,"EPHEMERIS_TYPE":0,"CLASSIFICATION_TYPE":"U","NORAD_CAT_ID":65659,"ELEMENT_SET_NO":999,"REV_AT_EPOCH":2388,"BSTAR":-1.0557e-5,"MEAN_MOTION_DOT":-2.13e-6,"MEAN_MOTION_DDOT":0},{"OBJECT_NAME":"STARLINK-35246","OBJECT_ID":"2025-211J","EPOCH":"2026-02-16T16:50:56.942016","MEAN_MOTION":15.05655028,"ECCENTRICITY":0.0001602,"INCLINATION":97.6032,"RA_OF_ASC_NODE":93.3732,"ARG_OF_PERICENTER":85.523,"MEAN_ANOMALY":274.6179,"EPHEMERIS_TYPE":0,"CLASSIFICATION_TYPE":"U","NORAD_CAT_ID":65660,"ELEMENT_SET_NO":999,"REV_AT_EPOCH":2388,"BSTAR":0.00035408,"MEAN_MOTION_DOT":5.053e-5,"MEAN_MOTION_DDOT":0},{"OBJECT_NAME":"STARLINK-35220","OBJECT_ID":"2025-211K","EPOCH":"2026-02-16T16:46:57.709920","MEAN_MOTION":15.05652941,"ECCENTRICITY":0.0001336,"INCLINATION":97.6026,"RA_OF_ASC_NODE":93.3772,"ARG_OF_PERICENTER":90.7867,"MEAN_ANOMALY":269.3513,"EPHEMERIS_TYPE":0,"CLASSIFICATION_TYPE":"U","NORAD_CAT_ID":65661,"ELEMENT_SET_NO":999,"REV_AT_EPOCH":2388,"BSTAR":0.0003823,"MEAN_MOTION_DOT":5.46e-5,"MEAN_MOTION_DDOT":0},{"OBJECT_NAME":"STARLINK-35176","OBJECT_ID":"2025-211L","EPOCH":"2026-02-16T19:54:21.403296","MEAN_MOTION":15.05644367,"ECCENTRICITY":0.0001056,"INCLINATION":97.6023,"RA_OF_ASC_NODE":93.5116,"ARG_OF_PERICENTER":133.9703,"MEAN_ANOMALY":226.1611,"EPHEMERIS_TYPE":0,"CLASSIFICATION_TYPE":"U","NORAD_CAT_ID":65662,"ELEMENT_SET_NO":999,"REV_AT_EPOCH":2390,"BSTAR":7.4232e-5,"MEAN_MOTION_DOT":1.01e-5,"MEAN_MOTION_DDOT":0},{"OBJECT_NAME":"STARLINK-35190","OBJECT_ID":"2025-211M","EPOCH":"2026-02-16T16:38:57.990336","MEAN_MOTION":15.05638701,"ECCENTRICITY":0.0001244,"INCLINATION":97.6018,"RA_OF_ASC_NODE":93.3842,"ARG_OF_PERICENTER":92.5109,"MEAN_ANOMALY":267.626,"EPHEMERIS_TYPE":0,"CLASSIFICATION_TYPE":"U","NORAD_CAT_ID":65663,"ELEMENT_SET_NO":999,"REV_AT_EPOCH":2388,"BSTAR":7.7137e-5,"MEAN_MOTION_DOT":1.052e-5,"MEAN_MOTION_DDOT":0},{"OBJECT_NAME":"STARLINK-35201","OBJECT_ID":"2025-211N","EPOCH":"2026-02-16T16:35:00.466368","MEAN_MOTION":15.05670212,"ECCENTRICITY":0.0001714,"INCLINATION":97.6019,"RA_OF_ASC_NODE":93.3884,"ARG_OF_PERICENTER":91.3739,"MEAN_ANOMALY":268.7684,"EPHEMERIS_TYPE":0,"CLASSIFICATION_TYPE":"U","NORAD_CAT_ID":65664,"ELEMENT_SET_NO":999,"REV_AT_EPOCH":2388,"BSTAR":0.00047311,"MEAN_MOTION_DOT":6.776e-5,"MEAN_MOTION_DDOT":0},{"OBJECT_NAME":"STARLINK-35115","OBJECT_ID":"2025-211P","EPOCH":"2026-02-16T16:30:59.920128","MEAN_MOTION":15.05651807,"ECCENTRICITY":6.83e-5,"INCLINATION":97.6017,"RA_OF_ASC_NODE":93.3914,"ARG_OF_PERICENTER":130.5885,"MEAN_ANOMALY":229.5401,"EPHEMERIS_TYPE":0,"CLASSIFICATION_TYPE":"U","NORAD_CAT_ID":65665,"ELEMENT_SET_NO":999,"REV_AT_EPOCH":2388,"BSTAR":7.8906e-5,"MEAN_MOTION_DOT":1.078e-5,"MEAN_MOTION_DDOT":0},{"OBJECT_NAME":"STARLINK-35181","OBJECT_ID":"2025-211Q","EPOCH":"2026-02-16T16:27:00.791712","MEAN_MOTION":15.05653224,"ECCENTRICITY":0.0001135,"INCLINATION":97.602,"RA_OF_ASC_NODE":93.3947,"ARG_OF_PERICENTER":127.9082,"MEAN_ANOMALY":232.2248,"EPHEMERIS_TYPE":0,"CLASSIFICATION_TYPE":"U","NORAD_CAT_ID":65666,"ELEMENT_SET_NO":999,"REV_AT_EPOCH":2388,"BSTAR":0.00015621,"MEAN_MOTION_DOT":2.194e-5,"MEAN_MOTION_DDOT":0},{"OBJECT_NAME":"STARLINK-35361","OBJECT_ID":"2025-211R","EPOCH":"2026-02-16T16:23:00.787200","MEAN_MOTION":15.05641297,"ECCENTRICITY":0.0001342,"INCLINATION":97.6027,"RA_OF_ASC_NODE":93.3998,"ARG_OF_PERICENTER":115.2707,"MEAN_ANOMALY":244.8659,"EPHEMERIS_TYPE":0,"CLASSIFICATION_TYPE":"U","NORAD_CAT_ID":65667,"ELEMENT_SET_NO":999,"REV_AT_EPOCH":2388,"BSTAR":-9.2177e-5,"MEAN_MOTION_DOT":-1.39e-5,"MEAN_MOTION_DDOT":0},{"OBJECT_NAME":"STARLINK-35351","OBJECT_ID":"2025-211S","EPOCH":"2026-02-16T16:19:03.181152","MEAN_MOTION":15.05665096,"ECCENTRICITY":0.0001464,"INCLINATION":97.6025,"RA_OF_ASC_NODE":93.4033,"ARG_OF_PERICENTER":89.3414,"MEAN_ANOMALY":270.798,"EPHEMERIS_TYPE":0,"CLASSIFICATION_TYPE":"U","NORAD_CAT_ID":65668,"ELEMENT_SET_NO":999,"REV_AT_EPOCH":2388,"BSTAR":0.00021084,"MEAN_MOTION_DOT":2.984e-5,"MEAN_MOTION_DDOT":0},{"OBJECT_NAME":"STARLINK-35353","OBJECT_ID":"2025-211T","EPOCH":"2026-02-16T16:15:03.118752","MEAN_MOTION":15.05656162,"ECCENTRICITY":1.35e-5,"INCLINATION":97.6027,"RA_OF_ASC_NODE":93.4067,"ARG_OF_PERICENTER":40.3267,"MEAN_ANOMALY":319.797,"EPHEMERIS_TYPE":0,"CLASSIFICATION_TYPE":"U","NORAD_CAT_ID":65669,"ELEMENT_SET_NO":999,"REV_AT_EPOCH":2388,"BSTAR":0.00013602,"MEAN_MOTION_DOT":1.903e-5,"MEAN_MOTION_DDOT":0},{"OBJECT_NAME":"STARLINK-35359","OBJECT_ID":"2025-211U","EPOCH":"2026-02-16T16:11:05.670816","MEAN_MOTION":15.05661982,"ECCENTRICITY":4.88e-5,"INCLINATION":97.6027,"RA_OF_ASC_NODE":93.41,"ARG_OF_PERICENTER":167.7076,"MEAN_ANOMALY":192.4163,"EPHEMERIS_TYPE":0,"CLASSIFICATION_TYPE":"U","NORAD_CAT_ID":65670,"ELEMENT_SET_NO":999,"REV_AT_EPOCH":2388,"BSTAR":0.00076912,"MEAN_MOTION_DOT":0.00011058,"MEAN_MOTION_DDOT":0},{"OBJECT_NAME":"STARLINK-35194","OBJECT_ID":"2025-211V","EPOCH":"2026-02-16T16:03:05.454432","MEAN_MOTION":15.05655,"ECCENTRICITY":6.67e-5,"INCLINATION":97.6029,"RA_OF_ASC_NODE":93.4159,"ARG_OF_PERICENTER":101.4724,"MEAN_ANOMALY":258.6578,"EPHEMERIS_TYPE":0,"CLASSIFICATION_TYPE":"U","NORAD_CAT_ID":65671,"ELEMENT_SET_NO":999,"REV_AT_EPOCH":2388,"BSTAR":0.00026803,"MEAN_MOTION_DOT":3.809e-5,"MEAN_MOTION_DDOT":0}]
