STARLINK-35240          
1 65655U 25211D   26047.72142199  .00005386  00000+0  37719-3 0  9993
2 65655  97.6043  93.3464 0001473  97.4488 262.6906 15.05649279 23882
STARLINK-35344          
1 65656U 25211E   26047.71589560  .00002899  00000+0  20507-3 0  9993
2 65656  97.6045  93.3546 0001577  91.3526 268.7882 15.05643684 23881
STARLINK-34540          
1 65657U 25211F   26047.71034590  .00001764  00000+0  12640-3 0  9991
2 65657  97.6044  93.3625 0001513 133.0905 227.0449 15.05650898 23886
STARLINK-35282          
1 65658U 25211G   26047.70480873  .00001291  00000+0  93651-4 0  9997
2 65658  97.6037  93.3692 0001524  94.9340 265.2061 15.05650798 23886
STARLINK-35120          
1 65659U 25211H   26047.70757541 -.00000213  00000+0 -10557-4 0  9996
2 65659  97.6041  93.3662 0001057 140.6452 219.4851 15.05648119 23885
STARLINK-35246          
1 65660U 25211J   26047.70204794  .00005053  00000+0  35408-3 0  9991
2 65660  97.6032  93.3732 0001602  85.5230 274.6179 15.05655028 23885
STARLINK-35220          
1 65661U 25211K   26047.69927905  .00005460  00000+0  38230-3 0  9994
2 65661  97.6026  93.3772 0001336  90.7867 269.3513 15.05652941 23885
STARLINK-35176          
1 65662U 25211L   26047.82941439  .00001010  00000+0  74232-4 0  9998
2 65662  97.6023  93.5116 0001056 133.9703 226.1611 15.05644367 23901
STARLINK-35190          
1 65663U 25211M   26047.69372674  .00001052  00000+0  77137-4 0  9996
2 65663  97.6018  93.3842 0001244  92.5109 267.6260 15.05638701 23881
STARLINK-35201          
1 65664U 25211N   26047.69097762  .00006776  00000+0  47311-3 0  9997
2 65664  97.6019  93.3884 0001714  91.3739 268.7684 15.05670212 23882
STARLINK-35115          
1 65665U 25211P   26047.68819352  .00001078  00000+0  78906-4 0  9999
2 65665  97.6017  93.3914 0000683 130.5885 229.5401 15.05651807 23888
STARLINK-35181          
1 65666U 25211Q   26047.68542583  .00002194  00000+0  15621-3 0  9993
2 65666  97.6020  93.3947 0001135 127.9082 232.2248 15.05653224 23886
STARLINK-35361          
1 65667U 25211R   26047.68264800 -.00001390  00000+0 -92177-4 0  9998
2 65667  97.6027  93.3998 0001342 115.2707 244.8659 15.05641297 23886
STARLINK-35351          
1 65668U 25211S   26047.67989793  .00002984  00000+0  21084-3 0  9999
2 65668  97.6025  93.4033 0001464  89.3414 270.7980 15.05665096 23885
STARLINK-35353          
1 65669U 25211T   26047.67711943  .00001903  00000+0  13602-3 0  9997
2 65669  97.6027  93.4067 0000135  40.3267 319.7970 15.05656162 23889
STARLINK-35359          
1 65670U 25211U   26047.67437119  .00011058  00000+0  76912-3 0  9994
2 65670  97.6027  93.4100 0000488 167.7076 192.4163 15.05661982 23888
STARLINK-35194          
1 65671U 25211V   26047.66881313  .00003809  00000+0  26803-3 0  9992
2 65671  97.6029  93.4159 0000667 101.4724 258.6578 15.05655000 23888
